Results
*******************************************************************************
 Revised: Aug 07, 2025                Siarnaq / (Saturn)                    629

 For mean orbital elements, see https://ssd.jpl.nasa.gov/sats/elem/
 Recently discovered Saturnian irregular.
*******************************************************************************


*******************************************************************************
Ephemeris / API_USER Sat Dec 20 21:56:50 2025 Pasadena, USA      / Horizons    
*******************************************************************************
Target body name: Siarnaq (629)                   {source: sat456_merged_DE440}
Center body name: Earth (399)                     {source: sat456_merged_DE440}
Center-site name: GEOCENTRIC
*******************************************************************************
Start time      : A.D. 2020-Jan-01 00:00:00.0000 UT      
Stop  time      : A.D. 2020-Dec-20 00:00:00.0000 UT      
Step-size       : 1440 minutes
*******************************************************************************
Target pole/equ : undefined
Target radii    : undefined                                                    
Center geodetic : 0.0, 0.0, -6378.137             {E-lon(deg),Lat(deg),Alt(km)}
Center cylindric: 0.0, 0.0, 0.0                   {E-lon(deg),Dxy(km),Dz(km)}
Center pole/equ : ITRF93                          {East-longitude positive}
Center radii    : 6378.137, 6378.137, 6356.752 km {Equator_a, b, pole_c}       
Target primary  : Saturn
Vis. interferer : MOON (R_eq= 1737.400) km        {source: sat456_merged_DE440}
Rel. light bend : Sun                             {source: sat456_merged_DE440}
Rel. lght bnd GM: 1.3271E+11 km^3/s^2                                          
Atmos refraction: NO (AIRLESS)
RA format       : HMS
Time format     : CAL 
Calendar mode   : Mixed Julian/Gregorian
EOP file        : eop.251219.p260317                                           
EOP coverage    : DATA-BASED 1962-JAN-20 TO 2025-DEC-19. PREDICTS-> 2026-MAR-16
Units conversion: 1 au= 149597870.700 km, c= 299792.458 km/s, 1 day= 86400.0 s 
Table cut-offs 1: Elevation (-90.0deg=NO ),Airmass (>38.000=NO), Daylight (NO )
Table cut-offs 2: Solar elongation (  0.0,180.0=NO ),Local Hour Angle( 0.0=NO )
Table cut-offs 3: RA/DEC angular rate (     0.0=NO )                           
**************************************************************************************************************************
 Date__(UT)__HR:MN     R.A._____(ICRF)_____DEC    APmag   S-brt             delta      deldot     S-O-T /r     S-T-O  Cnst
**************************************************************************************************************************
$$SOE
 2020-Feb-28 00:00     20 01 30.59 -20 58 59.4     n.a.    n.a.  10.8263947578466 -19.5752822   40.4108 /L    3.6447   Sgr
 2020-Feb-29 00:00     20 01 55.65 -20 57 45.5     n.a.    n.a.  10.8149886892734 -19.9220523   41.3157 /L    3.7131   Sgr
 2020-Mar-01 00:00     20 02 20.49 -20 56 31.9     n.a.    n.a.  10.8033838183661 -20.2637030   42.2210 /L    3.7807   Sgr
 2020-Mar-02 00:00     20 02 45.10 -20 55 18.7     n.a.    n.a.  10.7915831261389 -20.6001523   43.1266 /L    3.8474   Sgr
 2020-Mar-03 00:00     20 03 09.47 -20 54 06.0     n.a.    n.a.  10.7795896369812 -20.9313326   44.0325 /L    3.9133   Sgr
 2020-Mar-04 00:00     20 03 33.61 -20 52 53.7     n.a.    n.a.  10.7674064088432 -21.2571964   44.9388 /L    3.9782   Sgr
 2020-Mar-05 00:00     20 03 57.51 -20 51 41.8     n.a.    n.a.  10.7550365194163 -21.5777244   45.8454 /L    4.0422   Sgr
 2020-Mar-06 00:00     20 04 21.16 -20 50 30.4     n.a.    n.a.  10.7424830469091 -21.8929359   46.7524 /L    4.1053   Sgr
 2020-Mar-07 00:00     20 04 44.57 -20 49 19.5     n.a.    n.a.  10.7297490453101 -22.2028965   47.6597 /L    4.1675   Sgr
 2020-Mar-08 00:00     20 05 07.72 -20 48 09.1     n.a.    n.a.  10.7168375167180 -22.5077192   48.5675 /L    4.2287   Sgr
 2020-Mar-09 00:00     20 05 30.62 -20 46 59.3     n.a.    n.a.  10.7037513870513 -22.8075512   49.4756 /L    4.2889   Sgr
 2020-Mar-10 00:00     20 05 53.26 -20 45 50.0     n.a.    n.a.  10.6904934944253 -23.1025432   50.3842 /L    4.3481   Sgr
 2020-Mar-11 00:00     20 06 15.63 -20 44 41.2     n.a.    n.a.  10.6770665986952 -23.3928083   51.2934 /L    4.4063   Sgr
 2020-Mar-12 00:00     20 06 37.74 -20 43 33.0     n.a.    n.a.  10.6634734143430 -23.6783857   52.2030 /L    4.4635   Sgr
 2020-Mar-13 00:00     20 06 59.58 -20 42 25.4     n.a.    n.a.  10.6497166595291 -23.9592228   53.1132 /L    4.5196   Sgr
 2020-Mar-14 00:00     20 07 21.15 -20 41 18.5     n.a.    n.a.  10.6357991077641 -24.2351835   54.0241 /L    4.5747   Cap
 2020-Mar-15 00:00     20 07 42.44 -20 40 12.1     n.a.    n.a.  10.6217236294817 -24.5060733   54.9355 /L    4.6288   Cap
 2020-Mar-16 00:00     20 08 03.45 -20 39 06.4     n.a.    n.a.  10.6074932172448 -24.7716685   55.8476 /L    4.6817   Cap
 2020-Mar-17 00:00     20 08 24.17 -20 38 01.4     n.a.    n.a.  10.5931109953247 -25.0317397   56.7603 /L    4.7335   Cap
 2020-Mar-18 00:00     20 08 44.59 -20 36 57.0     n.a.    n.a.  10.5785802183228 -25.2860666   57.6737 /L    4.7842   Cap
 2020-Mar-19 00:00     20 09 04.73 -20 35 53.4     n.a.    n.a.  10.5639042640208 -25.5344436   58.5877 /L    4.8338   Cap
 2020-Mar-20 00:00     20 09 24.56 -20 34 50.5     n.a.    n.a.  10.5490866242418 -25.7766813   59.5025 /L    4.8822   Cap
 2020-Mar-21 00:00     20 09 44.09 -20 33 48.3     n.a.    n.a.  10.5341308957809 -26.0126053   60.4179 /L    4.9295   Cap
 2020-Mar-22 00:00     20 10 03.32 -20 32 46.9     n.a.    n.a.  10.5190407720654 -26.2420551   61.3340 /L    4.9755   Cap
 2020-Mar-23 00:00     20 10 22.23 -20 31 46.2     n.a.    n.a.  10.5038200353856 -26.4648835   62.2509 /L    5.0203   Cap
 2020-Mar-24 00:00     20 10 40.83 -20 30 46.4     n.a.    n.a.  10.4884725492729 -26.6809565   63.1684 /L    5.0639   Cap
 2020-Mar-25 00:00     20 10 59.10 -20 29 47.3     n.a.    n.a.  10.4730022506276 -26.8901542   64.0866 /L    5.1063   Cap
 2020-Mar-26 00:00     20 11 17.06 -20 28 49.1     n.a.    n.a.  10.4574131414007 -27.0923713   65.0055 /L    5.1474   Cap
 2020-Mar-27 00:00     20 11 34.68 -20 27 51.8     n.a.    n.a.  10.4417092798630 -27.2875181   65.9251 /L    5.1873   Cap
 2020-Mar-28 00:00     20 11 51.98 -20 26 55.2     n.a.    n.a.  10.4258947716270 -27.4755204   66.8454 /L    5.2258   Cap
 2020-Mar-29 00:00     20 12 08.94 -20 25 59.6     n.a.    n.a.  10.4099737605489 -27.6563200   67.7665 /L    5.2631   Cap
 2020-Mar-30 00:00     20 12 25.57 -20 25 04.9     n.a.    n.a.  10.3939504194210 -27.8298752   68.6882 /L    5.2990   Cap
 2020-Mar-31 00:00     20 12 41.86 -20 24 11.1     n.a.    n.a.  10.3778289400108 -27.9961623   69.6106 /L    5.3336   Cap
 2020-Apr-01 00:00     20 12 57.80 -20 23 18.2     n.a.    n.a.  10.3616135216176 -28.1551796   70.5337 /L    5.3669   Cap
 2020-Apr-02 00:00     20 13 13.40 -20 22 26.2     n.a.    n.a.  10.3453083570657 -28.3069524   71.4576 /L    5.3988   Cap
 2020-Apr-03 00:00     20 13 28.65 -20 21 35.2     n.a.    n.a.  10.3289176151803 -28.4515395   72.3822 /L    5.4294   Cap
 2020-Apr-04 00:00     20 13 43.55 -20 20 45.2     n.a.    n.a.  10.3124454196522 -28.5890390   73.3075 /L    5.4586   Cap
 2020-Apr-05 00:00     20 13 58.09 -20 19 56.1     n.a.    n.a.  10.2958958261227 -28.7195878   74.2336 /L    5.4864   Cap
 2020-Apr-06 00:00     20 14 12.28 -20 19 08.1     n.a.    n.a.  10.2792728022357 -28.8433506   75.1605 /L    5.5128   Cap
 2020-Apr-07 00:00     20 14 26.12 -20 18 21.0     n.a.    n.a.  10.2625802183014 -28.9604942   76.0882 /L    5.5378   Cap
 2020-Apr-08 00:00     20 14 39.59 -20 17 35.0     n.a.    n.a.  10.2458218566370 -29.0711498   77.0167 /L    5.5614   Cap
 2020-Apr-09 00:00     20 14 52.70 -20 16 50.0     n.a.    n.a.  10.2290014432790 -29.1753758   77.9461 /L    5.5836   Cap
 2020-Apr-10 00:00     20 15 05.44 -20 16 06.0     n.a.    n.a.  10.2121226973313 -29.2731363   78.8764 /L    5.6044   Cap
 2020-Apr-11 00:00     20 15 17.81 -20 15 23.1     n.a.    n.a.  10.1951893852433 -29.3643062   79.8077 /L    5.6237   Cap
 2020-Apr-12 00:00     20 15 29.82 -20 14 41.3     n.a.    n.a.  10.1782053656608 -29.4486968   80.7399 /L    5.6415   Cap
 2020-Apr-13 00:00     20 15 41.44 -20 14 00.6     n.a.    n.a.  10.1611746160558 -29.5260909   81.6731 /L    5.6579   Cap
 2020-Apr-14 00:00     20 15 52.69 -20 13 20.9     n.a.    n.a.  10.1441012405884 -29.5962710   82.6074 /L    5.6727   Cap
 2020-Apr-15 00:00     20 16 03.56 -20 12 42.4     n.a.    n.a.  10.1269894644112 -29.6590375   83.5427 /L    5.6861   Cap
 2020-Apr-16 00:00     20 16 14.05 -20 12 05.0     n.a.    n.a.  10.1098436211080 -29.7142149   84.4791 /L    5.6980   Cap
 2020-Apr-17 00:00     20 16 24.15 -20 11 28.7     n.a.    n.a.  10.0926681385174 -29.7616519   85.4165 /L    5.7084   Cap
 2020-Apr-18 00:00     20 16 33.86 -20 10 53.6     n.a.    n.a.  10.0754675258663 -29.8012172   86.3551 /L    5.7172   Cap
 2020-Apr-19 00:00     20 16 43.18 -20 10 19.6     n.a.    n.a.  10.0582463631884 -29.8327963   87.2947 /L    5.7245   Cap
 2020-Apr-20 00:00     20 16 52.11 -20 09 46.8     n.a.    n.a.  10.0410092927885 -29.8562878   88.2353 /L    5.7303   Cap
 2020-Apr-21 00:00     20 17 00.64 -20 09 15.2     n.a.    n.a.  10.0237610119387 -29.8716026   89.1771 /L    5.7345   Cap
 2020-Apr-22 00:00     20 17 08.77 -20 08 44.7     n.a.    n.a.  10.0065062658443 -29.8786640   90.1200 /L    5.7371   Cap
 2020-Apr-23 00:00     20 17 16.50 -20 08 15.5     n.a.    n.a.  9.98924984004619 -29.8774094   91.0639 /L    5.7381   Cap
 2020-Apr-24 00:00     20 17 23.83 -20 07 47.4     n.a.    n.a.  9.97199655168754 -29.8677923   92.0089 /L    5.7376   Cap
 2020-Apr-25 00:00     20 17 30.75 -20 07 20.6     n.a.    n.a.  9.95475123945119 -29.8497850   92.9550 /L    5.7355   Cap
